{
    "links": {
        "self": "http://www.neowsapp.com/rest/v1/neo/3837540?api_key=iIulBulltgU6a56xZRHN4H3l9WmuAYTsLGpBGhQ2"
    },
    "id": "3837540",
    "neo_reference_id": "3837540",
    "name": "(2018 YB3)",
    "designation": "2018 YB3",
    "nasa_jpl_url": "http://ssd.jpl.nasa.gov/sbdb.cgi?sstr=3837540",
    "absolute_magnitude_h": 22.2,
    "estimated_diameter": {
        "kilometers": {
            "estimated_diameter_min": 0.096506147,
            "estimated_diameter_max": 0.2157943048
        },
        "meters": {
            "estimated_diameter_min": 96.5061469579,
            "estimated_diameter_max": 215.7943048444
        },
        "miles": {
            "estimated_diameter_min": 0.059966121,
            "estimated_diameter_max": 0.134088323
        },
        "feet": {
            "estimated_diameter_min": 316.6212271853,
            "estimated_diameter_max": 707.9865871058
        }
    },
    "is_potentially_hazardous_asteroid": false,
    "close_approach_data": [
        {
            "close_approach_date": "2018-11-26",
            "close_approach_date_full": "2018-Nov-26 00:31",
            "epoch_date_close_approach": 1543192260000,
            "relative_velocity": {
                "kilometers_per_second": "8.0743318352",
                "kilometers_per_hour": "29067.5946067956",
                "miles_per_hour": "18061.4728822059"
            },
            "miss_distance": {
                "astronomical": "0.2002894037",
                "lunar": "77.9125780393",
                "kilometers": "29962868.177090119",
                "miles": "18618062.9541928822"
            },
            "orbiting_body": "Earth"
        }
    ],
    "orbital_data": {
        "orbit_id": "6",
        "orbit_determination_date": "2019-01-20 07:32:50",
        "first_observation_date": "2018-12-31",
        "last_observation_date": "2019-01-15",
        "data_arc_in_days": 15,
        "observations_used": 37,
        "orbit_uncertainty": "7",
        "minimum_orbit_intersection": ".136524",
        "jupiter_tisserand_invariant": "3.236",
        "epoch_osculation": "2459000.5",
        "eccentricity": ".567072312142506",
        "semi_major_axis": "2.438501017109954",
        "inclination": "12.23303584971227",
        "ascending_node_longitude": "103.6155130928681",
        "orbital_period": "1390.858146134975",
        "perihelion_distance": "1.05569460717556",
        "perihelion_argument": "312.7791509535346",
        "aphelion_distance": "3.821307427044348",
        "perihelion_time": "2458435.740466946473",
        "mean_anomaly": "146.178409684879",
        "mean_motion": ".2588330096785184",
        "equinox": "J2000",
        "orbit_class": {
            "orbit_class_type": "AMO",
            "orbit_class_description": "Near-Earth asteroid orbits similar to that of 1221 Amor",
            "orbit_class_range": "1.017 AU < q (perihelion) < 1.3 AU"
        }
    },
    "is_sentry_object": false
}